NORAD_CAT_ID,OBJECT_NAME,OBJECT_TYPE,EPOCH,MEAN_MOTION,ECCENTRICITY,INCLINATION,RA_OF_ASC_NODE,ARG_OF_PERICENTER,MEAN_ANOMALY,BSTAR,MEAN_MOTION_DOT,MEAN_MOTION_DDOT,TLE_LINE0,TLE_LINE1,TLE_LINE2,SEMIMAJOR_AXIS,PERIOD,APOGEE,PERIGEE,DECAYED
53889.0,STARLINK-5031,PAYLOAD,2023-05-21 06:55:33,15.08836309,9.83e-05,53.2147,238.4993,60.9233,299.1857,-3.4051e-05,-8.3e-06,0.0,0 STARLINK-5031,1 53889U 22119D   23141.28857735 -.00000830  00000-0 -34051-4 0  9994,2 53889  53.2147 238.4993 0000983  60.9233 299.1857 15.08836309 36764,6917.892,95.438,540.437,539.077,0.0
53889.0,STARLINK-5031,PAYLOAD,2023-05-21 11:41:42,15.08835456,0.0001,53.2146,237.6066,82.6264,277.4841,-5.6746e-05,-1.191e-05,0.0,0 STARLINK-5031,1 53889U 22119D   23141.48729767 -.00001191  00000-0 -56746-4 0  9995,2 53889  53.2146 237.6066 0001000  82.6264 277.4841 15.08835456 37216,6917.894,95.438,540.451,539.067,0.0
53889.0,STARLINK-5031,PAYLOAD,2023-05-22 08:21:43,15.08840487,9.85e-05,53.2154,233.7393,88.0312,272.0793,-9.1268e-05,-1.74e-05,0.0,0 STARLINK-5031,1 53889U 22119D   23142.34841742 -.00001740  00000-0 -91268-4 0  9997,2 53889  53.2154 233.7393 0000985  88.0312 272.0793 15.08840487 36924,6917.879,95.438,540.425,539.062,0.0
53889.0,STARLINK-5031,PAYLOAD,2023-05-22 13:07:52,15.08845375,9.49e-05,53.2144,232.8495,92.6811,267.429,1.7807e-05,-4e-08,0.0,0 STARLINK-5031,1 53889U 22119D   23142.54713466 -.00000004  00000-0  17807-4 0  9998,2 53889  53.2144 232.8495 0000949  92.6811 267.4290 15.08845375 37372,6917.864,95.437,540.385,539.072,0.0
53889.0,STARLINK-5031,PAYLOAD,2023-05-23 11:23:17,15.08829796,9.63e-05,53.214,228.6866,97.2073,262.9028,8.3551e-05,1.042e-05,0.0,0 STARLINK-5031,1 53889U 22119D   23143.47450643  .00001042  00000-0  83551-4 0  9997,2 53889  53.2140 228.6866 0000963  97.2073 262.9028 15.08829796 37097,6917.912,95.438,540.443,539.11,0.0
53889.0,STARLINK-5031,PAYLOAD,2023-05-23 12:58:40,15.08830333,0.0001012,53.214,228.3895,100.4304,259.6803,0.00015657,2.204e-05,0.0,0 STARLINK-5031,1 53889U 22119D   23143.54074663  .00002204  00000-0  15657-3 0  9991,2 53889  53.2140 228.3895 0001012 100.4304 259.6803 15.08830333 37527,6917.91,95.438,540.475,539.075,0.0
53889.0,STARLINK-5031,PAYLOAD,2023-05-24 14:24:50,15.08845147,9.49e-05,53.2139,223.6308,91.7147,268.3954,0.00016325,2.312e-05,0.0,0 STARLINK-5031,1 53889U 22119D   23144.60058085  .00002312  00000-0  16325-3 0  9992,2 53889  53.2139 223.6308 0000949  91.7147 268.3954 15.08845147 37261,6917.865,95.437,540.386,539.073,0.0
53889.0,STARLINK-5031,PAYLOAD,2023-05-25 23:47:56,15.08841602,9.59e-05,53.2145,217.3863,90.0769,270.0333,0.00010173,1.332e-05,0.0,0 STARLINK-5031,1 53889U 22119D   23145.99162593  .00001332  00000-0  10173-3 0  9991,2 53889  53.2145 217.3863 0000959  90.0769 270.0333 15.08841602 37473,6917.875,95.437,540.404,539.077,0.0
53889.0,STARLINK-5031,PAYLOAD,2023-05-26 10:55:38,15.08846139,0.0001149,53.2144,215.3046,73.2901,286.8217,0.00010114,1.322e-05,0.0,0 STARLINK-5031,1 53889U 22119D   23146.45530407  .00001322  00000-0  10114-3 0  9990,2 53889  53.2144 215.3046 0001149  73.2901 286.8217 15.08846139 37966,6917.862,95.437,540.521,538.932,0.0
53889.0,STARLINK-5031,PAYLOAD,2023-05-27 10:46:25,15.0884203,0.0001043,53.2153,210.8431,80.5982,279.5128,0.00010622,1.403e-05,0.0,0 STARLINK-5031,1 53889U 22119D   23147.44890501  .00001403  00000-0  10622-3 0  9998,2 53889  53.2153 210.8431 0001043  80.5982 279.5128 15.08842030 37693,6917.874,95.437,540.461,539.018,0.0
53889.0,STARLINK-5031,PAYLOAD,2023-05-27 13:57:11,15.08843058,0.000104,53.2151,210.2481,80.1008,280.0102,0.00010778,1.428e-05,0.0,0 STARLINK-5031,1 53889U 22119D   23147.58138416  .00001428  00000-0  10778-3 0  9992,2 53889  53.2151 210.2481 0001040  80.1008 280.0102 15.08843058 38132,6917.871,95.437,540.456,539.017,0.0
53889.0,STARLINK-5031,PAYLOAD,2023-05-27 23:29:30,15.08840879,0.0001041,53.2148,208.4634,80.6322,279.4788,8.0676e-05,9.96e-06,0.0,0 STARLINK-5031,1 53889U 22119D   23147.97882554  .00000996  00000-0  80676-4 0  9998,2 53889  53.2148 208.4634 0001041  80.6322 279.4788 15.08840879 38198,6917.878,95.437,540.463,539.023,0.0
53889.0,STARLINK-5031,PAYLOAD,2023-05-28 13:47:58,15.08843243,0.0001059,53.2147,205.7866,81.3209,278.7904,6.911e-05,8.12e-06,0.0,0 STARLINK-5031,1 53889U 22119D   23148.57498308  .00000812  00000-0  69110-4 0  9992,2 53889  53.2147 205.7866 0001059  81.3209 278.7904 15.08843243 37868,6917.87,95.437,540.468,539.003,0.0
53889.0,STARLINK-5031,PAYLOAD,2023-05-29 10:27:59,15.08844028,0.0001048,53.2145,201.9208,78.278,281.833,7.9376e-05,9.76e-06,0.0,0 STARLINK-5031,1 53889U 22119D   23149.43610072  .00000976  00000-0  79376-4 0  9998,2 53889  53.2145 201.9208 0001048  78.2780 281.8330 15.08844028 38413,6917.868,95.437,540.458,539.008,0.0
53889.0,STARLINK-5031,PAYLOAD,2023-05-29 20:00:18,15.08838234,0.0001061,53.2142,200.1365,76.5298,283.5812,2.9948e-05,1.89e-06,0.0,0 STARLINK-5031,1 53889U 22119D   23149.83354532  .00000189  00000-0  29948-4 0  9994,2 53889  53.2142 200.1365 0001061  76.5298 283.5812 15.08838234 38477,6917.886,95.438,540.485,539.017,0.0
53889.0,STARLINK-5031,PAYLOAD,2023-05-29 23:11:04,15.08835103,0.0001136,53.2147,199.543,87.4868,272.6254,1.6472e-05,-2.6e-07,0.0,0 STARLINK-5031,1 53889U 22119D   23149.96602785 -.00000026  00000-0  16472-4 0  9993,2 53889  53.2147 199.5430 0001136  87.4868 272.6254 15.08835103 38070,6917.895,95.438,540.546,538.974,0.0
53889.0,STARLINK-5031,PAYLOAD,2023-05-30 10:18:47,15.08831798,0.00011,53.2147,197.4613,87.438,272.6738,-8.6845e-06,-4.26e-06,0.0,0 STARLINK-5031,1 53889U 22119D   23150.42971190 -.00000426  00000-0 -86845-5 0  9992,2 53889  53.2147 197.4613 0001100  87.4380 272.6738 15.08831798 38567,6917.905,95.438,540.531,539.009,0.0
53889.0,STARLINK-5031,PAYLOAD,2023-05-30 19:51:05,15.08837573,0.0001052,53.2154,195.6784,83.4982,276.6129,-2.0681e-05,-6.17e-06,0.0,0 STARLINK-5031,1 53889U 22119D   23150.82714954 -.00000617  00000-0 -20681-4 0  9996,2 53889  53.2154 195.6784 0001052  83.4982 276.6129 15.08837573 38626,6917.888,95.438,540.481,539.025,0.0
53889.0,STARLINK-5031,PAYLOAD,2023-05-31 02:12:38,15.08838858,0.0001055,53.2145,194.4874,87.0244,273.0869,4.8211e-05,4.8e-06,0.0,0 STARLINK-5031,1 53889U 22119D   23151.09210716  .00000480  00000-0  48211-4 0  9998,2 53889  53.2145 194.4874 0001055  87.0244 273.0869 15.08838858 38244,6917.884,95.438,540.479,539.019,0.0
53889.0,STARLINK-5031,PAYLOAD,2023-05-31 10:09:33,15.08839933,0.0001045,53.2147,193.0007,86.4825,273.6287,4.9893e-05,5.06e-06,0.0,0 STARLINK-5031,1 53889U 22119D   23151.42330700  .00000506  00000-0  49893-4 0  9997,2 53889  53.2147 193.0007 0001045  86.4825 273.6287 15.08839933 38713,6917.881,95.438,540.469,539.023,0.0
53889.0,STARLINK-5031,PAYLOAD,2023-05-31 19:41:52,15.08839246,0.0001025,53.2149,191.2167,84.729,275.3819,6.5946e-05,7.62e-06,0.0,0 STARLINK-5031,1 53889U 22119D   23151.82074713  .00000762  00000-0  65946-4 0  9991,2 53889  53.2149 191.2167 0001025  84.7290 275.3819 15.08839246 38770,6917.883,95.438,540.457,539.039,0.0
53889.0,STARLINK-5031,PAYLOAD,2023-06-01 10:00:20,15.08838333,0.0001016,53.2145,188.5396,81.617,278.4937,0.00011945,1.614e-05,0.0,0 STARLINK-5031,1 53889U 22119D   23152.41690789  .00001614  00000-0  11945-3 0  9990,2 53889  53.2145 188.5396 0001016  81.6170 278.4937 15.08838333 38863,6917.885,95.438,540.453,539.048,0.0
53889.0,STARLINK-5031,PAYLOAD,2023-06-01 19:32:39,15.08838401,0.0001027,53.2148,186.7557,85.6834,274.4276,8.1913e-05,1.016e-05,0.0,0 STARLINK-5031,1 53889U 22119D   23152.81434945  .00001016  00000-0  81913-4 0  9993,2 53889  53.2148 186.7557 0001027  85.6834 274.4276 15.08838401 38507,6917.885,95.438,540.461,539.04,0.0
53889.0,STARLINK-5031,PAYLOAD,2023-06-02 08:15:45,15.08838515,0.0001117,53.215,184.3772,85.1403,274.9717,2.7301e-05,1.47e-06,0.0,0 STARLINK-5031,1 53889U 22119D   23153.34427144  .00000147  00000-0  27301-4 0  9990,2 53889  53.2150 184.3772 0001117  85.1403 274.9717 15.08838515 39007,6917.885,95.438,540.523,538.977,0.0
53889.0,STARLINK-5031,PAYLOAD,2023-06-02 19:23:27,15.08839403,0.0001192,53.2156,182.296,83.5467,276.5661,3.5154e-05,2.72e-06,0.0,0 STARLINK-5031,1 53889U 22119D   23153.80795154  .00000272  00000-0  35154-4 0  9994,2 53889  53.2156 182.2960 0001192  83.5467 276.5661 15.08839403 39074,6917.882,95.438,540.572,538.923,0.0
53889.0,STARLINK-5031,PAYLOAD,2023-06-03 01:44:59,15.08840193,0.0001216,53.2155,181.1064,83.6592,276.4539,4.1303e-05,3.7e-06,0.0,0 STARLINK-5031,1 53889U 22119D   23154.07291089  .00000370  00000-0  41303-4 0  9994,2 53889  53.2155 181.1064 0001216  83.6592 276.4539 15.08840193 38691,6917.88,95.438,540.586,538.904,0.0
53889.0,STARLINK-5031,PAYLOAD,2023-06-03 08:06:32,15.08839024,0.0001151,53.2154,179.9162,86.2834,273.829,1.3075e-05,-8e-07,0.0,0 STARLINK-5031,1 53889U 22119D   23154.33787246 -.00000080  00000-0  13075-4 0  9992,2 53889  53.2154 179.9162 0001151  86.2834 273.8290 15.08839024 39158,6917.883,95.438,540.545,538.952,0.0
53889.0,STARLINK-5031,PAYLOAD,2023-06-03 19:14:14,15.08839635,0.0001155,53.2157,177.8348,85.6773,274.4351,3.8802e-05,3.3e-06,0.0,0 STARLINK-5031,1 53889U 22119D   23154.80155129  .00000330  00000-0  38802-4 0  9995,2 53889  53.2157 177.8348 0001155  85.6773 274.4351 15.08839635 39224,6917.882,95.438,540.546,538.947,0.0
53889.0,STARLINK-5031,PAYLOAD,2023-06-04 07:57:18,15.08840718,0.0001029,53.2153,175.4557,87.9169,272.1941,7.1395e-05,8.49e-06,0.0,0 STARLINK-5031,1 53889U 22119D   23155.33146936  .00000849  00000-0  71395-4 0  9999,2 53889  53.2153 175.4557 0001029  87.9169 272.1941 15.08840718 38885,6917.878,95.438,540.455,539.031,0.0
53889.0,STARLINK-5031,PAYLOAD,2023-06-04 11:08:05,15.08841342,0.0001027,53.2152,174.8608,89.0819,271.0291,7.313e-05,8.76e-06,0.0,0 STARLINK-5031,1 53889U 22119D   23155.46394858  .00000876  00000-0  73130-4 0  9990,2 53889  53.2152 174.8608 0001027  89.0819 271.0291 15.08841342 39327,6917.876,95.437,540.452,539.031,0.0
